OBJECT_NAME,OBJECT_ID,EPOCH,MEAN_MOTION,ECCENTRICITY,INCLINATION,RA_OF_ASC_NODE,ARG_OF_PERICENTER,MEAN_ANOMALY,EPHEMERIS_TYPE,CLASSIFICATION_TYPE,NORAD_CAT_ID,ELEMENT_SET_NO,REV_AT_EPOCH,BSTAR,MEAN_MOTION_DOT,MEAN_MOTION_DDOT
QIANFAN-127,2026-104A,2026-06-10T12:30:45.566208,14.10213019,.00071197,88.9853,342.3623,68.4235,291.7708,0,U,69073,999,414,-.12452693E+1,-.204213E-1,0
QIANFAN-128,2026-104B,2026-06-10T12:23:52.064448,14.12202021,.00042717,88.9822,342.3817,141.3829,218.7663,0,U,69074,999,413,.40840983E-4,.89E-6,0
QIANFAN-129,2026-104C,2026-06-10T12:55:44.541408,14.12844417,.00068777,88.9855,342.3468,130.6400,229.5385,0,U,69075,999,415,-.10904729E+1,-.1887303E-1,0
QIANFAN-130,2026-104D,2026-06-10T12:03:22.285728,14.08629763,.00080606,88.9857,342.3794,69.5845,290.6204,0,U,69076,999,413,-.13320525E+1,-.2116775E-1,0
QIANFAN-131,2026-104E,2026-06-10T12:55:56.195040,14.10589346,.0004593,88.9858,342.3654,70.0542,290.1137,0,U,69077,999,414,-.12167937E+1,-.2011204E-1,0
QIANFAN-132,2026-104F,2026-06-10T12:22:36.906816,14.07136723,.00056226,88.9860,342.3813,101.0277,259.1539,0,U,69078,999,413,-.13460238E+1,-.2084214E-1,0
QIANFAN-133,2026-104G,2026-06-10T11:54:30.816864,14.08817436,.00056826,88.9858,342.3776,83.9704,276.2127,0,U,69079,999,413,-.1259962E+1,-.2016253E-1,0
QIANFAN-134,2026-104H,2026-06-10T11:48:22.164480,14.11583494,.00069811,88.9975,342.3857,114.0175,246.1742,0,U,69080,999,413,.53151045E-4,.111E-5,0
QIANFAN-135,2026-104J,2026-06-10T11:37:47.446752,14.12664542,.0001054,88.9895,342.3901,100.6769,259.4536,0,U,69081,999,413,.38375238E-4,.85E-6,0
QIANFAN-136,2026-104K,2026-06-10T11:29:29.631552,14.09843065,.00084936,88.9857,342.3745,76.0296,284.1832,0,U,69082,999,413,-.12768314E+1,-.207732E-1,0
QIANFAN-137,2026-104L,2026-06-10T14:33:01.819584,14.24280117,.00056353,88.9861,342.3375,124.6387,235.5337,0,U,69083,999,416,.38060255E-4,.102E-5,0
QIANFAN-138,2026-104M,2026-06-10T09:27:21.774528,14.10295686,.00080565,88.9860,342.3822,73.4259,286.7810,0,U,69084,999,412,-.12401851E+1,-.2037354E-1,0
QIANFAN-139,2026-104N,2026-06-10T12:42:47.322432,14.10395949,.00076465,88.9851,342.3640,67.3769,292.8223,0,U,69085,999,414,-.1220979E+1,-.2011359E-1,0
QIANFAN-140,2026-104P,2026-06-10T12:35:32.383968,14.10378108,.00072162,88.9858,342.3637,64.7301,295.4631,0,U,69086,999,414,-.12343141E+1,-.2031108E-1,0
QIANFAN-141,2026-104Q,2026-06-10T12:26:37.686336,14.11699230,.00072681,88.9853,342.3627,81.4898,278.7111,0,U,69087,999,414,-.11799739E+1,-.1992004E-1,0
QIANFAN-142,2026-104R,2026-06-10T12:17:05.330400,14.12022079,.00058198,88.9852,342.3631,87.6076,272.5776,0,U,69088,999,414,-.11936745E+1,-.2024431E-1,0
QIANFAN-143,2026-104S,2026-06-10T11:55:03.870912,14.12648660,.00061554,88.9856,342.3584,91.0150,269.1742,0,U,69089,999,414,-.11786121E+1,-.2022176E-1,0
QIANFAN-144,2026-104T,2026-06-10T12:07:13.683072,14.11194867,.00053791,88.9855,342.3602,42.5088,317.6513,0,U,69090,999,414,-.12755121E+1,-.2122863E-1,0
DRAGON CRS-34,2026-107A,2026-06-10T09:59:31.702560,15.49162374,.00058814,51.6361,333.6061,172.3680,187.7399,0,U,69103,999,57076,.10451669E-3,.5345E-4,0
QIANFAN-145,2026-108A,2026-06-10T11:44:18.348000,14.10169033,.00164837,89.0108,22.9666,113.5310,246.7608,0,U,69104,999,339,-.12333348E+1,-.2024363E-1,0
QIANFAN-146,2026-108B,2026-06-10T11:27:59.681376,14.15371706,.00167699,89.0112,22.9480,145.8566,214.3703,0,U,69105,999,340,-.10783527E+1,-.1952725E-1,0
QIANFAN-147,2026-108C,2026-06-10T11:21:46.495584,14.10721842,.00155062,89.0115,22.9644,109.2002,251.0863,0,U,69106,999,339,-.12162851E+1,-.2016868E-1,0
