0 QIANFAN-127
1 69073U 26104A   26161.52136072 -.02042130  00000-0 -12453+1 0  9999
2 69073  88.9853 342.3623 0007120  68.4235 291.7708 14.10213019  4144
0 QIANFAN-128
1 69074U 26104B   26161.51657482  .00000089  00000-0  40841-4 0  9991
2 69074  88.9822 342.3817 0004272 141.3829 218.7663 14.12202021  4132
0 QIANFAN-129
1 69075U 26104C   26161.53870997 -.01887303  00000-0 -10905+1 0  9991
2 69075  88.9855 342.3468 0006878 130.6400 229.5385 14.12844417  4155
0 QIANFAN-130
1 69076U 26104D   26161.50234127 -.02116775  00000-0 -13321+1 0  9992
2 69076  88.9857 342.3794 0008061  69.5845 290.6204 14.08629763  4136
0 QIANFAN-131
1 69077U 26104E   26161.53884485 -.02011204  00000-0 -12168+1 0  9993
2 69077  88.9858 342.3654 0004593  70.0542 290.1137 14.10589346  4146
0 QIANFAN-132
1 69078U 26104F   26161.51570494 -.02084214  00000-0 -13460+1 0  9991
2 69078  88.9860 342.3813 0005623 101.0277 259.1539 14.07136723  4135
0 QIANFAN-133
1 69079U 26104G   26161.49619001 -.02016253  00000-0 -12600+1 0  9990
2 69079  88.9858 342.3776 0005683  83.9704 276.2127 14.08817436  4131
0 QIANFAN-134
1 69080U 26104H   26161.49192320  .00000111  00000-0  53151-4 0  9994
2 69080  88.9975 342.3857 0006981 114.0175 246.1742 14.11583494  4130
0 QIANFAN-135
1 69081U 26104J   26161.48457693  .00000085  00000-0  38375-4 0  9992
2 69081  88.9895 342.3901 0001054 100.6769 259.4536 14.12664542  4131
0 QIANFAN-136
1 69082U 26104K   26161.47881518 -.02077320  00000-0 -12768+1 0  9993
2 69082  88.9857 342.3745 0008494  76.0296 284.1832 14.09843065  4131
0 QIANFAN-137
1 69083U 26104L   26161.60627106  .00000102  00000-0  38060-4 0  9997
2 69083  88.9861 342.3375 0005635 124.6387 235.5337 14.24280117  4164
0 QIANFAN-138
1 69084U 26104M   26161.39400202 -.02037354  00000-0 -12402+1 0  9991
2 69084  88.9860 342.3822 0008057  73.4259 286.7810 14.10295686  4123
0 QIANFAN-139
1 69085U 26104N   26161.52971438 -.02011359  00000-0 -12210+1 0  9995
2 69085  88.9851 342.3640 0007646  67.3769 292.8223 14.10395949  4144
0 QIANFAN-140
1 69086U 26104P   26161.52468037 -.02031108  00000-0 -12343+1 0  9993
2 69086  88.9858 342.3637 0007216  64.7301 295.4631 14.10378108  4144
0 QIANFAN-141
1 69087U 26104Q   26161.51849174 -.01992004  00000-0 -11800+1 0  9995
2 69087  88.9853 342.3627 0007268  81.4898 278.7111 14.11699230  4143
0 QIANFAN-142
1 69088U 26104R   26161.51186725 -.02024431  00000-0 -11937+1 0  9994
2 69088  88.9852 342.3631 0005820  87.6076 272.5776 14.12022079  4147
0 QIANFAN-143
1 69089U 26104S   26161.49657258 -.02022176  00000-0 -11786+1 0  9992
2 69089  88.9856 342.3584 0006155  91.0150 269.1742 14.12648660  4148
0 QIANFAN-144
1 69090U 26104T   26161.50501948 -.02122863  00000-0 -12755+1 0  9991
2 69090  88.9855 342.3602 0005379  42.5088 317.6513 14.11194867  4147
0 DRAGON CRS-34
1 69103U 26107A   26161.41633915  .00005345  00000-0  10452-3 0  9995
2 69103  51.6361 333.6061 0005881 172.3680 187.7399 15.49162374570765
0 QIANFAN-145
1 69104U 26108A   26161.48910125 -.02024363  00000-0 -12333+1 0  9997
2 69104  89.0108  22.9666 0016484 113.5310 246.7608 14.10169033  3392
0 QIANFAN-146
1 69105U 26108B   26161.47777409 -.01952725  00000-0 -10784+1 0  9992
2 69105  89.0112  22.9480 0016770 145.8566 214.3703 14.15371706  3407
0 QIANFAN-147
1 69106U 26108C   26161.47345481 -.02016868  00000-0 -12163+1 0  9997
2 69106  89.0115  22.9644 0015506 109.2002 251.0863 14.10721842  3396
